[{"OBJECT_NAME":"ICEYE-X43","OBJECT_ID":"2024-149BZ","EPOCH":"2026-03-09T22:37:06.906720","MEAN_MOTION":14.99337202,"ECCENTRICITY":0.00024583,"INCLINATION":97.6823,"RA_OF_ASC_NODE":147.2527,"ARG_OF_PERICENTER":59.9226,"MEAN_ANOMALY":300.2241,"EPHEMERIS_TYPE":0,"CLASSIFICATION_TYPE":"U","NORAD_CAT_ID":60539,"ELEMENT_SET_NO":999,"REV_AT_EPOCH":8524,"BSTAR":0.00036668005,"MEAN_MOTION_DOT":4.424e-5,"MEAN_MOTION_DDOT":0},{"OBJECT_NAME":"STARLINK-32407","OBJECT_ID":"2024-225K","EPOCH":"2026-03-09T16:09:05.063328","MEAN_MOTION":14.98330777,"ECCENTRICITY":0.00033654,"INCLINATION":70.002,"RA_OF_ASC_NODE":164.4508,"ARG_OF_PERICENTER":268.8788,"MEAN_ANOMALY":91.1985,"EPHEMERIS_TYPE":0,"CLASSIFICATION_TYPE":"U","NORAD_CAT_ID":62172,"ELEMENT_SET_NO":999,"REV_AT_EPOCH":6987,"BSTAR":0.00020091653,"MEAN_MOTION_DOT":2.305e-5,"MEAN_MOTION_DDOT":0}]
